<?xml version="1.0" encoding="UTF-8"?>
<ndm xmlns:xsi="http://www.w3.org/2001/XMLSchema-instance" xsi:noNamespaceSchemaLocation="https://sanaregistry.org/r/ndmxml_unqualified/ndmxml-2.0.0-master-2.0.xsd">
<omm id="CCSDS_OMM_VERS" version="2.0">
<header><CREATION_DATE/><ORIGINATOR/></header><body><segment><metadata><OBJECT_NAME>KUIPER-00071</OBJECT_NAME><OBJECT_ID>2025-151C</OBJECT_ID><CENTER_NAME>EARTH</CENTER_NAME><REF_FRAME>TEME</REF_FRAME><TIME_SYSTEM>UTC</TIME_SYSTEM><MEAN_ELEMENT_THEORY>SGP4</MEAN_ELEMENT_THEORY></metadata><data><meanElements><EPOCH>2025-10-15T12:49:31.496448</EPOCH><MEAN_MOTION>14.79929017</MEAN_MOTION><ECCENTRICITY>.00085242</ECCENTRICITY><INCLINATION>51.8996</INCLINATION><RA_OF_ASC_NODE>224.9484</RA_OF_ASC_NODE><ARG_OF_PERICENTER>105.7816</ARG_OF_PERICENTER><MEAN_ANOMALY>254.4087</MEAN_ANOMALY></meanElements><tleParameters><EPHEMERIS_TYPE>0</EPHEMERIS_TYPE><CLASSIFICATION_TYPE>U</CLASSIFICATION_TYPE><NORAD_CAT_ID>64818</NORAD_CAT_ID><ELEMENT_SET_NO>999</ELEMENT_SET_NO><REV_AT_EPOCH>1377</REV_AT_EPOCH><BSTAR>-.10238338E-2</BSTAR><MEAN_MOTION_DOT>-.8023E-4</MEAN_MOTION_DOT><MEAN_MOTION_DDOT>0</MEAN_MOTION_DDOT></tleParameters></data></segment></body></omm>
<omm id="CCSDS_OMM_VERS" version="2.0">
<header><CREATION_DATE/><ORIGINATOR/></header><body><segment><metadata><OBJECT_NAME>KUIPER-00072</OBJECT_NAME><OBJECT_ID>2025-151D</OBJECT_ID><CENTER_NAME>EARTH</CENTER_NAME><REF_FRAME>TEME</REF_FRAME><TIME_SYSTEM>UTC</TIME_SYSTEM><MEAN_ELEMENT_THEORY>SGP4</MEAN_ELEMENT_THEORY></metadata><data><meanElements><EPOCH>2025-10-15T16:00:03.000096</EPOCH><MEAN_MOTION>15.16231597</MEAN_MOTION><ECCENTRICITY>.00056454</ECCENTRICITY><INCLINATION>51.8859</INCLINATION><RA_OF_ASC_NODE>208.1023</RA_OF_ASC_NODE><ARG_OF_PERICENTER>108.4728</ARG_OF_PERICENTER><MEAN_ANOMALY>180.9871</MEAN_ANOMALY></meanElements><tleParameters><EPHEMERIS_TYPE>0</EPHEMERIS_TYPE><CLASSIFICATION_TYPE>U</CLASSIFICATION_TYPE><NORAD_CAT_ID>64819</NORAD_CAT_ID><ELEMENT_SET_NO>999</ELEMENT_SET_NO><REV_AT_EPOCH>351</REV_AT_EPOCH><BSTAR>-.15206568E-2</BSTAR><MEAN_MOTION_DOT>-.29978E-3</MEAN_MOTION_DOT><MEAN_MOTION_DDOT>0</MEAN_MOTION_DDOT></tleParameters></data></segment></body></omm>
<omm id="CCSDS_OMM_VERS" version="2.0">
<header><CREATION_DATE/><ORIGINATOR/></header><body><segment><metadata><OBJECT_NAME>KUIPER-00073</OBJECT_NAME><OBJECT_ID>2025-151E</OBJECT_ID><CENTER_NAME>EARTH</CENTER_NAME><REF_FRAME>TEME</REF_FRAME><TIME_SYSTEM>UTC</TIME_SYSTEM><MEAN_ELEMENT_THEORY>SGP4</MEAN_ELEMENT_THEORY></metadata><data><meanElements><EPOCH>2025-10-15T13:38:10.552416</EPOCH><MEAN_MOTION>14.79956983</MEAN_MOTION><ECCENTRICITY>.00136822</ECCENTRICITY><INCLINATION>51.8993</INCLINATION><RA_OF_ASC_NODE>224.7988</RA_OF_ASC_NODE><ARG_OF_PERICENTER>130.8420</ARG_OF_PERICENTER><MEAN_ANOMALY>229.3731</MEAN_ANOMALY></meanElements><tleParameters><EPHEMERIS_TYPE>0</EPHEMERIS_TYPE><CLASSIFICATION_TYPE>U</CLASSIFICATION_TYPE><NORAD_CAT_ID>64820</NORAD_CAT_ID><ELEMENT_SET_NO>999</ELEMENT_SET_NO><REV_AT_EPOCH>1496</REV_AT_EPOCH><BSTAR>.76736826E-3</BSTAR><MEAN_MOTION_DOT>.5642E-4</MEAN_MOTION_DOT><MEAN_MOTION_DDOT>0</MEAN_MOTION_DDOT></tleParameters></data></segment></body></omm>
<omm id="CCSDS_OMM_VERS" version="2.0">
<header><CREATION_DATE/><ORIGINATOR/></header><body><segment><metadata><OBJECT_NAME>KUIPER-00074</OBJECT_NAME><OBJECT_ID>2025-151F</OBJECT_ID><CENTER_NAME>EARTH</CENTER_NAME><REF_FRAME>TEME</REF_FRAME><TIME_SYSTEM>UTC</TIME_SYSTEM><MEAN_ELEMENT_THEORY>SGP4</MEAN_ELEMENT_THEORY></metadata><data><meanElements><EPOCH>2025-10-15T16:00:03.000096</EPOCH><MEAN_MOTION>14.91387541</MEAN_MOTION><ECCENTRICITY>.00128504</ECCENTRICITY><INCLINATION>51.8942</INCLINATION><RA_OF_ASC_NODE>212.2811</RA_OF_ASC_NODE><ARG_OF_PERICENTER>141.4592</ARG_OF_PERICENTER><MEAN_ANOMALY>124.9863</MEAN_ANOMALY></meanElements><tleParameters><EPHEMERIS_TYPE>0</EPHEMERIS_TYPE><CLASSIFICATION_TYPE>U</CLASSIFICATION_TYPE><NORAD_CAT_ID>64821</NORAD_CAT_ID><ELEMENT_SET_NO>999</ELEMENT_SET_NO><REV_AT_EPOCH>557</REV_AT_EPOCH><BSTAR>-.13595811E+0</BSTAR><MEAN_MOTION_DOT>-.1268378E-1</MEAN_MOTION_DOT><MEAN_MOTION_DDOT>0</MEAN_MOTION_DDOT></tleParameters></data></segment></body></omm>
<omm id="CCSDS_OMM_VERS" version="2.0">
<header><CREATION_DATE/><ORIGINATOR/></header><body><segment><metadata><OBJECT_NAME>KUIPER-00075</OBJECT_NAME><OBJECT_ID>2025-151G</OBJECT_ID><CENTER_NAME>EARTH</CENTER_NAME><REF_FRAME>TEME</REF_FRAME><TIME_SYSTEM>UTC</TIME_SYSTEM><MEAN_ELEMENT_THEORY>SGP4</MEAN_ELEMENT_THEORY></metadata><data><meanElements><EPOCH>2025-10-15T00:50:58.098624</EPOCH><MEAN_MOTION>15.38912327</MEAN_MOTION><ECCENTRICITY>.00064729</ECCENTRICITY><INCLINATION>51.8769</INCLINATION><RA_OF_ASC_NODE>209.0033</RA_OF_ASC_NODE><ARG_OF_PERICENTER>103.1959</ARG_OF_PERICENTER><MEAN_ANOMALY>256.9751</MEAN_ANOMALY></meanElements><tleParameters><EPHEMERIS_TYPE>0</EPHEMERIS_TYPE><CLASSIFICATION_TYPE>U</CLASSIFICATION_TYPE><NORAD_CAT_ID>64822</NORAD_CAT_ID><ELEMENT_SET_NO>999</ELEMENT_SET_NO><REV_AT_EPOCH>1395</REV_AT_EPOCH><BSTAR>.11456425E-2</BSTAR><MEAN_MOTION_DOT>.44708E-3</MEAN_MOTION_DOT><MEAN_MOTION_DDOT>0</MEAN_MOTION_DDOT></tleParameters></data></segment></body></omm>
<omm id="CCSDS_OMM_VERS" version="2.0">
<header><CREATION_DATE/><ORIGINATOR/></header><body><segment><metadata><OBJECT_NAME>KUIPER-00076</OBJECT_NAME><OBJECT_ID>2025-151H</OBJECT_ID><CENTER_NAME>EARTH</CENTER_NAME><REF_FRAME>TEME</REF_FRAME><TIME_SYSTEM>UTC</TIME_SYSTEM><MEAN_ELEMENT_THEORY>SGP4</MEAN_ELEMENT_THEORY></metadata><data><meanElements><EPOCH>2025-10-15T16:00:03.000096</EPOCH><MEAN_MOTION>14.84586668</MEAN_MOTION><ECCENTRICITY>.00050771</ECCENTRICITY><INCLINATION>51.8960</INCLINATION><RA_OF_ASC_NODE>214.4339</RA_OF_ASC_NODE><ARG_OF_PERICENTER>152.8610</ARG_OF_PERICENTER><MEAN_ANOMALY>276.4582</MEAN_ANOMALY></meanElements><tleParameters><EPHEMERIS_TYPE>0</EPHEMERIS_TYPE><CLASSIFICATION_TYPE>U</CLASSIFICATION_TYPE><NORAD_CAT_ID>64823</NORAD_CAT_ID><ELEMENT_SET_NO>999</ELEMENT_SET_NO><REV_AT_EPOCH>440</REV_AT_EPOCH><BSTAR>.44437438E-2</BSTAR><MEAN_MOTION_DOT>.37876E-3</MEAN_MOTION_DOT><MEAN_MOTION_DDOT>0</MEAN_MOTION_DDOT></tleParameters></data></segment></body></omm>
<omm id="CCSDS_OMM_VERS" version="2.0">
<header><CREATION_DATE/><ORIGINATOR/></header><body><segment><metadata><OBJECT_NAME>KUIPER-00077</OBJECT_NAME><OBJECT_ID>2025-151J</OBJECT_ID><CENTER_NAME>EARTH</CENTER_NAME><REF_FRAME>TEME</REF_FRAME><TIME_SYSTEM>UTC</TIME_SYSTEM><MEAN_ELEMENT_THEORY>SGP4</MEAN_ELEMENT_THEORY></metadata><data><meanElements><EPOCH>2025-10-15T12:08:40.334496</EPOCH><MEAN_MOTION>14.79953404</MEAN_MOTION><ECCENTRICITY>.00064868</ECCENTRICITY><INCLINATION>51.8985</INCLINATION><RA_OF_ASC_NODE>220.0801</RA_OF_ASC_NODE><ARG_OF_PERICENTER>90.9109</ARG_OF_PERICENTER><MEAN_ANOMALY>269.2597</MEAN_ANOMALY></meanElements><tleParameters><EPHEMERIS_TYPE>0</EPHEMERIS_TYPE><CLASSIFICATION_TYPE>U</CLASSIFICATION_TYPE><NORAD_CAT_ID>64824</NORAD_CAT_ID><ELEMENT_SET_NO>999</ELEMENT_SET_NO><REV_AT_EPOCH>1384</REV_AT_EPOCH><BSTAR>-.98825201E-3</BSTAR><MEAN_MOTION_DOT>-.7754E-4</MEAN_MOTION_DOT><MEAN_MOTION_DDOT>0</MEAN_MOTION_DDOT></tleParameters></data></segment></body></omm>
<omm id="CCSDS_OMM_VERS" version="2.0">
<header><CREATION_DATE/><ORIGINATOR/></header><body><segment><metadata><OBJECT_NAME>KUIPER-00078</OBJECT_NAME><OBJECT_ID>2025-151K</OBJECT_ID><CENTER_NAME>EARTH</CENTER_NAME><REF_FRAME>TEME</REF_FRAME><TIME_SYSTEM>UTC</TIME_SYSTEM><MEAN_ELEMENT_THEORY>SGP4</MEAN_ELEMENT_THEORY></metadata><data><meanElements><EPOCH>2025-10-15T16:00:03.000096</EPOCH><MEAN_MOTION>14.79893152</MEAN_MOTION><ECCENTRICITY>.00082071</ECCENTRICITY><INCLINATION>51.9001</INCLINATION><RA_OF_ASC_NODE>216.8706</RA_OF_ASC_NODE><ARG_OF_PERICENTER>162.8754</ARG_OF_PERICENTER><MEAN_ANOMALY>138.8846</MEAN_ANOMALY></meanElements><tleParameters><EPHEMERIS_TYPE>0</EPHEMERIS_TYPE><CLASSIFICATION_TYPE>U</CLASSIFICATION_TYPE><NORAD_CAT_ID>64825</NORAD_CAT_ID><ELEMENT_SET_NO>999</ELEMENT_SET_NO><REV_AT_EPOCH>312</REV_AT_EPOCH><BSTAR>.5432323E-2</BSTAR><MEAN_MOTION_DOT>.41427E-3</MEAN_MOTION_DOT><MEAN_MOTION_DDOT>0</MEAN_MOTION_DDOT></tleParameters></data></segment></body></omm>

</ndm>
