KUIPER-00071            
1 64818U 25151C   25288.53439232 -.00008023  00000+0 -10238-2 0  9997
2 64818  51.8996 224.9484 0008524 105.7816 254.4087 14.79929017 13774
KUIPER-00072            
1 64819U 25151D   25288.66670139 -.00029978  00000+0 -15207-2 0  9998
2 64819  51.8859 208.1023 0005645 108.4728 180.9871 15.16231597  3515
KUIPER-00073            
1 64820U 25151E   25288.56817769  .00005642  00000+0  76737-3 0  9997
2 64820  51.8993 224.7988 0013682 130.8420 229.3731 14.79956983 14963
KUIPER-00074            
1 64821U 25151F   25288.66670139 -.01268378  00000+0 -13596+0 0  9997
2 64821  51.8942 212.2811 0012850 141.4592 124.9863 14.91387541  5574
KUIPER-00075            
1 64822U 25151G   25288.03539466  .00044708  00000+0  11456-2 0  9998
2 64822  51.8769 209.0033 0006472 103.1959 256.9751 15.38912327 13958
KUIPER-00076            
1 64823U 25151H   25288.66670139  .00037876  00000+0  44437-2 0  9994
2 64823  51.8960 214.4339 0005077 152.8610 276.4582 14.84586668  4400
KUIPER-00077            
1 64824U 25151J   25288.50602239 -.00007754  00000+0 -98825-3 0  9999
2 64824  51.8985 220.0801 0006486  90.9109 269.2597 14.79953404 13849
KUIPER-00078            
1 64825U 25151K   25288.66670139  .00041427  00000+0  54323-2 0  9998
2 64825  51.9001 216.8706 0008207 162.8754 138.8846 14.79893152  3126
